OSCAR 7 (AO-7)          
1 07530U 74089B   21123.87424438 -.00000021  00000-0  15285-3 0  9990
2 07530 101.8510  98.4301 0012570 107.0071 281.9822 12.53648511126387
PHASE 3B (AO-10)        
1 14129U 83058B   21115.56582792  .00000201  00000-0  00000-0 0  9998
2 14129  25.9712 163.3424 6029701 329.3863   6.4129  2.05868017256807
UOSAT 2 (UO-11)         
1 14781U 84021B   21123.73604659  .00000133  00000-0  22329-4 0  9994
2 14781  97.5930 125.7802 0007338 220.6780 139.3887 14.83278767979307
LUSAT (LO-19)           
1 20442U 90005G   21124.14883127  .00000011  00000-0  20689-4 0  9991
2 20442  98.7376  79.2210 0010720 294.1656  65.8407 14.32984801634540
EYESAT A (AO-27)        
1 22825U 93061C   21124.09126714 -.00000003  00000-0  16737-4 0  9990
2 22825  98.9202 140.6128 0008851 157.1666 202.9910 14.30113202439913
ITAMSAT (IO-26)         
1 22826U 93061D   21123.86233643  .00000005  00000-0  19642-4 0  9994
2 22826  98.9145 140.2911 0009567 146.2864 213.8928 14.30451705439856
RADIO ROSTO (RS-15)     
1 23439U 94085A   21123.91450424 -.00000037  00000-0  15882-3 0  9993
2 23439  64.8123  87.9905 0159975 343.1463  16.4183 11.27570954 85316
JAS-2 (FO-29)           
1 24278U 96046B   21124.15649705 -.00000009  00000-0  29916-4 0  9996
2 24278  98.5692 197.9958 0349225 264.4035  91.7189 13.53103374220505
TECHSAT 1B (GO-32)      
1 25397U 98043D   21124.13026964  .00000004  00000-0  21353-4 0  9993
2 25397  98.7678  69.8118 0001124 156.7184 203.4046 14.23707088185403
ISS (ZARYA)             
1 25544U 98067A   21124.23376392  .00001511  00000-0  35605-4 0  9996
2 25544  51.6429 200.1286 0002720 317.4728 151.2698 15.48977663281785
PCSAT (NO-44)           
1 26931U 01043C   21124.13410142 -.00000029  00000-0  20681-4 0  9998
2 26931  67.0533  34.8159 0006983 263.3637  96.6670 14.30616557 23011
SAUDISAT 1C (SO-50)     
1 27607U 02058C   21123.71071625  .00000046  00000-0  26943-4 0  9993
2 27607  64.5538 115.1632 0035589  37.4024 322.9545 14.75741249987945
CUTE-1 (CO-55)          
1 27844U 03031E   21124.01640872  .00000069  00000-0  50596-4 0  9994
2 27844  98.6814 132.9017 0009381 200.9047 159.1749 14.22305331925702
CUBESAT XI-IV (CO-57)   
1 27848U 03031J   21123.99637977  .00000050  00000-0  42405-4 0  9996
2 27848  98.6871 133.4484 0009012 214.9126 145.1462 14.21882668925526
MOZHAYETS 4 (RS-22)     
1 27939U 03042A   21124.04685324  .00000084  00000-0  23664-4 0  9998
2 27939  98.1342 261.4698 0014097  63.7023 296.5607 14.66975333941014
CUBESAT XI-V            
1 28895U 05043F   21123.79272686  .00000186  00000-0  44498-4 0  9998
2 28895  98.0517 258.0239 0016463 356.0392   4.0678 14.63902239827473
CUTE-1.7+APD II (CO-65) 
1 32785U 08021C   21124.17298766  .00000338  00000-0  41754-4 0  9991
2 32785  97.6085 104.7430 0013802 144.3638 215.8504 14.88698477705654
DELFI-C3 (DO-64)        
1 32789U 08021G   21124.11692444  .00002130  00000-0  13906-3 0  9999
2 32789  97.3801 161.1873 0010099 298.7804  61.2411 15.08835855710240
SEEDS II (CO-66)        
1 32791U 08021J   21124.21508338  .00000378  00000-0  43206-4 0  9990
2 32791  97.5693 110.7388 0014732 111.0811 249.1985 14.91371117706265
YUBILEINY (RS-30)       
1 32953U 08025A   21124.12314892  .00000028  00000-0  12906-3 0  9998
2 32953  82.5013  78.4961 0020743  73.6832 286.6523 12.43101512587476
KKS-1 (KISEKI)          
1 33499U 09002H   21124.19352701  .00000122  00000-0  25754-4 0  9999
2 33499  98.2751 353.1664 0009047 174.1347 185.9969 14.75648783660313
SWISSCUBE               
1 35932U 09051B   21123.77114280  .00000168  00000-0  48875-4 0  9997
2 35932  98.6060 322.3806 0006714 217.7520 142.3207 14.56522820616455
BEESAT-1                
1 35933U 09051C   21123.80725099  .00000144  00000-0  43437-4 0  9991
2 35933  98.6028 324.2506 0004738 230.4276 129.6503 14.56582259616530
ITUPSAT1                
1 35935U 09051E   21123.78484266  .00000123  00000-0  39371-4 0  9997
2 35935  98.6132 324.3744 0007037 233.9384 126.1161 14.55716113616276
XIWANG-1 (HOPE-1)       
1 36122U 09072B   21124.21910702 -.00000055  00000-0 -33896-4 0  9999
2 36122 100.1289 106.7249 0007257 199.0252 161.0610 13.16360065547074
JUGNU                   
1 37839U 11058B   21124.24675045  .00000326  00000-0  31875-4 0  9997
2 37839  19.9600 137.2957 0018777 325.6769 122.9166 14.12712636494310
SRMSAT                  
1 37841U 11058D   21123.59130692  .00000329  00000-0  35718-4 0  9994
2 37841  19.9711 212.2265 0011813 160.2194 331.7643 14.10693683493329
M-CUBED & EXP-1 PRIME   
1 37855U 11061F   21124.22220407  .00001135  00000-0  62207-4 0  9997
2 37855 101.7152  24.6982 0167147 202.2112 157.1801 15.07524230519988
STRAND-1                
1 39090U 13009E   21123.50806458  .00000017  00000-0  20897-4 0  9997
2 39090  98.4317 326.7644 0010205  56.6222 303.5939 14.35173935428612
SOMP                    
1 39134U 13015E   21123.97567262  .00002255  00000-0  10589-3 0  9993
2 39134  64.8637 317.0897 0005155 281.6536  78.4014 15.22421722444822
BEESAT-3                
1 39135U 13015F   21123.75004248  .00001639  00000-0  86769-4 0  9999
2 39135  64.8670 346.2808 0002585 193.7484 166.3573 15.19250104443843
BEESAT-2                
1 39136U 13015G   21124.05834292  .00001289  00000-0  71195-4 0  9992
2 39136  64.8760 351.4936 0027096 249.2565 110.5657 15.18622073444173
ZACUBE-1 (TSHEPISOSAT)  
1 39417U 13066B   21124.21106175  .00000334  00000-0  48002-4 0  9991
2 39417  97.5911 110.8361 0057372 307.2175  52.3811 14.81493786402521
GOMX-1                  
1 39430U 13066Q   21124.10977334  .00000277  00000-0  59425-4 0  9994
2 39430  97.8133  49.7271 0149054 254.5748 103.8954 14.59594430396574
CUBEBUG-2 (LO-74)       
1 39440U 13066AA  21124.19116584  .00000347  00000-0  54751-4 0  9991
2 39440  97.6728  95.7291 0080492  20.2141 340.2226 14.76221623401094
FUNCUBE-1 (AO-73)       
1 39444U 13066AE  21124.22221283  .00000403  00000-0  55394-4 0  9999
2 39444  97.5819 113.2024 0056259 297.5696  61.9810 14.82396187401479
UWE-3                   
1 39446U 13066AG  21123.49527696  .00000371  00000-0  55491-4 0  9998
2 39446  97.6340 102.0464 0069387 347.2406  12.7047 14.78759789399864
SPROUT                  
1 39770U 14029E   21124.17363834  .00000883  00000-0  10134-3 0  9998
2 39770  97.9104 235.4997 0008993   3.4285 356.6987 14.88355945376752
UNISAT-6                
1 40012U 14033C   21124.18160147  .00000243  00000-0  43011-4 0  9998
2 40012  97.6801 328.9217 0059205  44.5955 315.9995 14.74293519369672
DUCHIFAT-1              
1 40021U 14033M   21123.71490962  .00000745  00000-0  80580-4 0  9996
2 40021  97.9698  63.4410 0011836 317.5464  42.4838 14.91297175373619
QB50P1                  
1 40025U 14033R   21124.21408233  .00000455  00000-0  53809-4 0  9998
2 40025  97.9317  54.7889 0011675 330.6714  29.3846 14.89411432373343
NUDT-PHONESAT           
1 40900U 15049B   21124.12386234  .00003626  00000-0  14308-3 0  9997
2 40900  97.4220 138.5363 0010238 300.0744 133.8393 15.26147969312062
ZDPS 2A                 
1 40901U 15049C   21124.19845002  .00002024  00000-0  98809-4 0  9998
2 40901  97.4636 131.8856 0012554 344.1723  82.5006 15.19373481311259
ZDPS 2B                 
1 40902U 15049D   21124.17913521  .00002065  00000-0  10065-3 0  9991
2 40902  97.4675 129.1862 0012465 341.4382  87.1873 15.19403289311222
XW-2A                   
1 40903U 15049E   21124.13680537  .00004124  00000-0  89101-4 0  9992
2 40903  97.2398 178.7516 0012693 168.4496 276.1141 15.45011233315950
KAITUO 1A               
1 40904U 15049F   21124.19335741  .00000825  00000-0  46201-4 0  9991
2 40904  97.4872 126.6140 0014388 358.8254  66.1163 15.16131017310839
2015-049G               
1 40905U 15049G   21124.19412128  .00000773  00000-0  44912-4 0  9996
2 40905  97.5003 123.7172 0015397 357.1262  65.9729 15.14949282310634
XW-2C                   
1 40906U 15049H   21124.15515817  .00000845  00000-0  46514-4 0  9992
2 40906  97.4864 127.0653 0014224 348.1657  75.9807 15.16665196310859
XW-2D                   
1 40907U 15049J   21124.15832984  .00001027  00000-0  55322-4 0  9990
2 40907  97.4854 126.8480 0013452 345.0533  77.1824 15.16976553310883
LILACSAT-2              
1 40908U 15049K   21124.20725785  .00000511  00000-0  31358-4 0  9997
2 40908  97.5045 124.8045 0015704 359.1603  61.8086 15.14394946310538
XW-2F                   
1 40910U 15049M   21124.10870728  .00001678  00000-0  83556-4 0  9999
2 40910  97.4731 129.8282 0013367 330.9920 101.5669 15.18911831310993
XW-2B                   
1 40911U 15049N   21124.15871108  .00000974  00000-0  52809-4 0  9993
2 40911  97.4856 127.5354 0013426 346.3623  75.9282 15.16893838310779
KAITUO 1B               
1 40912U 15049P   21124.11400676  .00001844  00000-0  85118-4 0  9994
2 40912  97.4470 134.1940 0012728 301.4715 131.5706 15.21432017311455
TIANWANG 1A (TW-1A)     
1 40928U 15051D   21124.11100787  .00005526  00000-0  11703-3 0  9993
2 40928  97.0806 150.0852 0011589  94.7859 300.6498 15.45434387314846
LAPAN-A2                
1 40931U 15052B   21122.21108093  .00000633  00000-0 -87715-6 0  9999
2 40931   5.9983 222.1962 0012677 105.6172 254.5403 14.76672500302457
E-ST@R-II               
1 41459U 16025D   21124.09054113  .00003180  00000-0  15833-3 0  9995
2 41459  98.1363 257.6703 0160484 211.5961 147.5531 15.07843801275730
AAUSAT 4                
1 41460U 16025E   21124.01049829  .00004317  00000-0  20414-3 0  9991
2 41460  98.1340 261.2407 0147522 196.3819 163.2607 15.10816512276002
NUSAT-1 (FRESCO)        
1 41557U 16033B   21124.23163682  .00002091  00000-0  76090-4 0  9994
2 41557  97.3908 218.4266 0013903  38.3872  45.5603 15.29289212274777
BEESAT-4                
1 41619U 16040W   21124.11577608  .00002417  00000-0  98528-4 0  9997
2 41619  97.2733 181.4444 0012267 123.8300 236.4108 15.25330118258250
